[{"OBJECT_NAME":"WILDFIRE 3","OBJECT_ID":"2023-133C","EPOCH":"2026-03-09T13:27:52.032096","MEAN_MOTION":13.86127534,"ECCENTRICITY":0.0007641,"INCLINATION":80.9933,"RA_OF_ASC_NODE":101.7887,"ARG_OF_PERICENTER":262.5942,"MEAN_ANOMALY":97.4346,"EPHEMERIS_TYPE":0,"CLASSIFICATION_TYPE":"U","NORAD_CAT_ID":57758,"ELEMENT_SET_NO":999,"REV_AT_EPOCH":12729,"BSTAR":6.7379e-5,"MEAN_MOTION_DOT":8.9e-7,"MEAN_MOTION_DDOT":0},{"OBJECT_NAME":"COSMOS 1275 DEB","OBJECT_ID":"1981-053DW","EPOCH":"2026-03-09T18:03:17.925984","MEAN_MOTION":13.91459657,"ECCENTRICITY":0.00232193,"INCLINATION":82.9491,"RA_OF_ASC_NODE":150.1869,"ARG_OF_PERICENTER":74.206,"MEAN_ANOMALY":46.5487,"EPHEMERIS_TYPE":0,"CLASSIFICATION_TYPE":"U","NORAD_CAT_ID":12780,"ELEMENT_SET_NO":999,"REV_AT_EPOCH":25129,"BSTAR":0.00059900903,"MEAN_MOTION_DOT":7.75e-6,"MEAN_MOTION_DDOT":0}]
